start=new Date('2023-06-22T00:00:00.000Z').valueOf();
sats=[{"TIME_SYSTEM":"UTC","CENTER_NAME":"EARTH","DECAY_DATE":null,"PERIAPSIS":"557.927","COUNTRY_CODE":"US","GP_ID":"234442600","ECCENTRICITY":"0.00016360","FILE":"3939291","MEAN_MOTION":"15.02542326","APOAPSIS":"560.197","RCS_SIZE":"LARGE","PERIOD":"95.838","ARG_OF_PERICENTER":"274.6556","NORAD_CAT_ID":"55585","REF_FRAME":"TEME","SITE":"AFETR","TLE_LINE1":"1 55585U 23020S   23172.76443869  .00002134  00000-0  17299-3 0  9998","RA_OF_ASC_NODE":"341.8978","EPOCH":"2023-06-21T18:20:47.502816","MEAN_ANOMALY":"85.4099","CLASSIFICATION_TYPE":"U","ELEMENT_SET_NO":"999","BSTAR":"0.00017299000000","EPHEMERIS_TYPE":"0","REV_AT_EPOCH":"1985","INCLINATION":"43.0038","MEAN_ELEMENT_THEORY":"SGP4","TLE_LINE2":"2 55585  43.0038 341.8978 0001636 274.6556  85.4099 15.02542326 19857","LAUNCH_DATE":"2023-02-12","MEAN_MOTION_DDOT":"0.0000000000000","MEAN_MOTION_DOT":"0.00002134","OBJECT_NAME":"STARLINK-5769","OBJECT_ID":"2023-020S","SEMIMAJOR_AXIS":"6937.197","OBJECT_TYPE":"PAYLOAD"},{"TIME_SYSTEM":"UTC","MEAN_MOTION":"15.02539624","GP_ID":"234444396","ECCENTRICITY":"0.00015870","FILE":"3939358","COUNTRY_CODE":"US","PERIAPSIS":"557.969","CENTER_NAME":"EARTH","DECAY_DATE":null,"APOAPSIS":"560.171","RA_OF_ASC_NODE":"354.2192","SITE":"AFETR","REF_FRAME":"TEME","TLE_LINE1":"1 55586U 23020T   23172.79402556  .00001279  00000-0  10971-3 0  9999","NORAD_CAT_ID":"55586","RCS_SIZE":"LARGE","ARG_OF_PERICENTER":"269.5907","PERIOD":"95.838","MEAN_ANOMALY":"90.4754","CLASSIFICATION_TYPE":"U","ELEMENT_SET_NO":"999","EPOCH":"2023-06-21T19:03:23.808384","MEAN_ELEMENT_THEORY":"SGP4","REV_AT_EPOCH":"1971","INCLINATION":"43.0044","BSTAR":"0.00010971000000","EPHEMERIS_TYPE":"0","MEAN_MOTION_DOT":"0.00001279","MEAN_MOTION_DDOT":"0.0000000000000","LAUNCH_DATE":"2023-02-12","TLE_LINE2":"2 55586  43.0044 354.2192 0001587 269.5907  90.4754 15.02539624 19715","OBJECT_TYPE":"PAYLOAD","SEMIMAJOR_AXIS":"6937.205","OBJECT_NAME":"STARLINK-5767","OBJECT_ID":"2023-020T"},{"CENTER_NAME":"EARTH","DECAY_DATE":null,"COUNTRY_CODE":"US","PERIAPSIS":"560.513","GP_ID":"234442988","ECCENTRICITY":"0.00015150","FILE":"3939291","MEAN_MOTION":"15.01729839","TIME_SYSTEM":"UTC","PERIOD":"95.889","RCS_SIZE":"LARGE","ARG_OF_PERICENTER":"268.0585","NORAD_CAT_ID":"55587","SITE":"AFETR","REF_FRAME":"TEME","TLE_LINE1":"1 55587U 23020U   23172.75335992  .00001404  00000-0  12141-3 0  9996","RA_OF_ASC_NODE":"352.1789","APOAPSIS":"562.615","BSTAR":"0.00012141000000","EPHEMERIS_TYPE":"0","INCLINATION":"43.0044","REV_AT_EPOCH":"1973","MEAN_ELEMENT_THEORY":"SGP4","EPOCH":"2023-06-21T18:04:50.297088","MEAN_ANOMALY":"92.0083","CLASSIFICATION_TYPE":"U","ELEMENT_SET_NO":"999","OBJECT_NAME":"STARLINK-5727","OBJECT_ID":"2023-020U","SEMIMAJOR_AXIS":"6939.699","OBJECT_TYPE":"PAYLOAD","TLE_LINE2":"2 55587  43.0044 352.1789 0001515 268.0585  92.0083 15.01729839 19735","LAUNCH_DATE":"2023-02-12","MEAN_MOTION_DOT":"0.00001404","MEAN_MOTION_DDOT":"0.0000000000000"},{"OBJECT_ID":"2023-020V","OBJECT_NAME":"STARLINK-5728","OBJECT_TYPE":"PAYLOAD","SEMIMAJOR_AXIS":"6937.223","LAUNCH_DATE":"2023-02-12","TLE_LINE2":"2 55588  43.0067 355.6206 0002241 279.7235  80.3354 15.02533750 19671","MEAN_MOTION_DOT":"0.00002695","MEAN_MOTION_DDOT":"0.0000000000000","BSTAR":"0.00021456000000","EPHEMERIS_TYPE":"0","MEAN_ELEMENT_THEORY":"SGP4","INCLINATION":"43.0067","REV_AT_EPOCH":"1967","ELEMENT_SET_NO":"999","MEAN_ANOMALY":"80.3354","CLASSIFICATION_TYPE":"U","EPOCH":"2023-06-21T12:30:53.693856","NORAD_CAT_ID":"55588","RCS_SIZE":"LARGE","ARG_OF_PERICENTER":"279.7235","PERIOD":"95.838","RA_OF_ASC_NODE":"355.6206","TLE_LINE1":"1 55588U 23020V   23172.52145479  .00002695  00000-0  21456-3 0  9993","SITE":"AFETR","REF_FRAME":"TEME","APOAPSIS":"560.643","PERIAPSIS":"557.534","COUNTRY_CODE":"US","DECAY_DATE":null,"CENTER_NAME":"EARTH","MEAN_MOTION":"15.02533750","ECCENTRICITY":"0.00022410","FILE":"3939133","GP_ID":"234437536","TIME_SYSTEM":"UTC"},{"SEMIMAJOR_AXIS":"6937.209","OBJECT_TYPE":"PAYLOAD","OBJECT_NAME":"STARLINK-5697","OBJECT_ID":"2023-020W","MEAN_MOTION_DOT":"0.00000512","MEAN_MOTION_DDOT":"0.0000000000000","TLE_LINE2":"2 55589  43.0045 354.2019 0001594 270.9854  89.0806 15.02538572 19715","LAUNCH_DATE":"2023-02-12","INCLINATION":"43.0045","REV_AT_EPOCH":"1971","MEAN_ELEMENT_THEORY":"SGP4","EPHEMERIS_TYPE":"0","BSTAR":"0.00005298300000","EPOCH":"2023-06-21T19:00:12.113568","CLASSIFICATION_TYPE":"U","MEAN_ANOMALY":"89.0806","ELEMENT_SET_NO":"999","REF_FRAME":"TEME","SITE":"AFETR","TLE_LINE1":"1 55589U 23020W   23172.79180687  .00000512  00000-0  52983-4 0  9999","RA_OF_ASC_NODE":"354.2019","RCS_SIZE":"LARGE","PERIOD":"95.838","ARG_OF_PERICENTER":"270.9854","NORAD_CAT_ID":"55589","APOAPSIS":"560.179","GP_ID":"234443615","ECCENTRICITY":"0.00015940","FILE":"3939309","MEAN_MOTION":"15.02538572","CENTER_NAME":"EARTH","DECAY_DATE":null,"PERIAPSIS":"557.968","COUNTRY_CODE":"US","TIME_SYSTEM":"UTC"},{"EPHEMERIS_TYPE":"0","BSTAR":"-0.00008753400000","INCLINATION":"43.0036","REV_AT_EPOCH":"1967","MEAN_ELEMENT_THEORY":"SGP4","EPOCH":"2023-06-21T12:22:54.759648","ELEMENT_SET_NO":"999","MEAN_ANOMALY":"76.4333","CLASSIFICATION_TYPE":"U","OBJECT_ID":"2023-020X","OBJECT_NAME":"STARLINK-5762","SEMIMAJOR_AXIS":"6937.202","OBJECT_TYPE":"PAYLOAD","TLE_LINE2":"2 55590  43.0036 355.5767 0001178 283.6379  76.4333 15.02540786 19672","LAUNCH_DATE":"2023-02-12","MEAN_MOTION_DOT":"-0.00001386","MEAN_MOTION_DDOT":"0.0000000000000","DECAY_DATE":null,"CENTER_NAME":"EARTH","COUNTRY_CODE":"US","PERIAPSIS":"558.250","ECCENTRICITY":"0.00011780","FILE":"3939133","GP_ID":"234437034","MEAN_MOTION":"15.02540786","TIME_SYSTEM":"UTC","ARG_OF_PERICENTER":"283.6379","RCS_SIZE":"LARGE","PERIOD":"95.838","NORAD_CAT_ID":"55590","TLE_LINE1":"1 55590U 23020X   23172.51591157 -.00001386  00000-0 -87534-4 0  9991","SITE":"AFETR","REF_FRAME":"TEME","RA_OF_ASC_NODE":"355.5767","APOAPSIS":"559.884"},{"APOAPSIS":"560.169","NORAD_CAT_ID":"55591","ARG_OF_PERICENTER":"274.1701","RCS_SIZE":"LARGE","PERIOD":"95.838","RA_OF_ASC_NODE":"354.1989","TLE_LINE1":"1 55591U 23020Y   23172.79069842  .00000332  00000-0  39643-4 0  9999","SITE":"AFETR","REF_FRAME":"TEME","TIME_SYSTEM":"UTC","COUNTRY_CODE":"US","PERIAPSIS":"557.970","DECAY_DATE":null,"CENTER_NAME":"EARTH","MEAN_MOTION":"15.02539979","ECCENTRICITY":"0.00015850","FILE":"3939309","GP_ID":"234443620","LAUNCH_DATE":"2023-02-12","TLE_LINE2":"2 55591  43.0052 354.1989 0001585 274.1701  85.8960 15.02539979 19715","MEAN_MOTION_DOT":"0.00000332","MEAN_MOTION_DDOT":"0.0000000000000","OBJECT_ID":"2023-020Y","OBJECT_NAME":"STARLINK-5760","OBJECT_TYPE":"PAYLOAD","SEMIMAJOR_AXIS":"6937.204","ELEMENT_SET_NO":"999","CLASSIFICATION_TYPE":"U","MEAN_ANOMALY":"85.8960","EPOCH":"2023-06-21T18:58:36.343488","EPHEMERIS_TYPE":"0","BSTAR":"0.00003964300000","MEAN_ELEMENT_THEORY":"SGP4","INCLINATION":"43.0052","REV_AT_EPOCH":"1971"},{"TIME_SYSTEM":"UTC","CENTER_NAME":"EARTH","DECAY_DATE":null,"PERIAPSIS":"557.871","COUNTRY_CODE":"US","GP_ID":"234438036","ECCENTRICITY":"0.00017320","FILE":"3939133","MEAN_MOTION":"15.02538864","APOAPSIS":"560.274","ARG_OF_PERICENTER":"275.6929","RCS_SIZE":"LARGE","PERIOD":"95.838","NORAD_CAT_ID":"55592","REF_FRAME":"TEME","SITE":"AFETR","TLE_LINE1":"1 55592U 23020Z   23172.51035470 -.00001088  00000-0 -65435-4 0  9999","RA_OF_ASC_NODE":"355.5314","EPOCH":"2023-06-21T12:14:54.646080","MEAN_ANOMALY":"84.3716","CLASSIFICATION_TYPE":"U","ELEMENT_SET_NO":"999","EPHEMERIS_TYPE":"0","BSTAR":"-0.00006543500000","INCLINATION":"43.0047","REV_AT_EPOCH":"1967","MEAN_ELEMENT_THEORY":"SGP4","TLE_LINE2":"2 55592  43.0047 355.5314 0001732 275.6929  84.3716 15.02538864 19679","LAUNCH_DATE":"2023-02-12","MEAN_MOTION_DOT":"-0.00001088","MEAN_MOTION_DDOT":"0.0000000000000","OBJECT_NAME":"STARLINK-5759","OBJECT_ID":"2023-020Z","SEMIMAJOR_AXIS":"6937.208","OBJECT_TYPE":"PAYLOAD"},{"TIME_SYSTEM":"UTC","COUNTRY_CODE":"US","PERIAPSIS":"558.060","CENTER_NAME":"EARTH","DECAY_DATE":null,"MEAN_MOTION":"15.02536985","GP_ID":"234438284","FILE":"3939133","ECCENTRICITY":"0.00014680","APOAPSIS":"560.097","NORAD_CAT_ID":"55593","RCS_SIZE":"LARGE","PERIOD":"95.838","ARG_OF_PERICENTER":"266.0901","RA_OF_ASC_NODE":"355.6015","SITE":"AFETR","REF_FRAME":"TEME","TLE_LINE1":"1 55593U 23020AA  23172.51923626 -.00000078  00000-0  93345-5 0  9998","MEAN_ANOMALY":"93.9773","CLASSIFICATION_TYPE":"U","ELEMENT_SET_NO":"999","EPOCH":"2023-06-21T12:27:42.012864","EPHEMERIS_TYPE":"0","BSTAR":"0.00000933450000","MEAN_ELEMENT_THEORY":"SGP4","REV_AT_EPOCH":"1967","INCLINATION":"43.0046","LAUNCH_DATE":"2023-02-12","TLE_LINE2":"2 55593  43.0046 355.6015 0001468 266.0901  93.9773 15.02536985 19679","MEAN_MOTION_DDOT":"0.0000000000000","MEAN_MOTION_DOT":"-0.00000078","OBJECT_NAME":"STARLINK-5703","OBJECT_ID":"2023-020AA","OBJECT_TYPE":"PAYLOAD","SEMIMAJOR_AXIS":"6937.214"},{"NORAD_CAT_ID":"55594","RCS_SIZE":"LARGE","ARG_OF_PERICENTER":"270.0271","PERIOD":"95.838","RA_OF_ASC_NODE":"354.0633","TLE_LINE1":"1 55594U 23020AB  23172.77293973  .00001829  00000-0  15047-3 0  9997","REF_FRAME":"TEME","SITE":"AFETR","APOAPSIS":"560.222","COUNTRY_CODE":"US","PERIAPSIS":"557.933","DECAY_DATE":null,"CENTER_NAME":"EARTH","MEAN_MOTION":"15.02537269","ECCENTRICITY":"0.00016500","FILE":"3939310","GP_ID":"234443133","TIME_SYSTEM":"UTC","OBJECT_ID":"2023-020AB","OBJECT_NAME":"STARLINK-5750","OBJECT_TYPE":"PAYLOAD","SEMIMAJOR_AXIS":"6937.213","LAUNCH_DATE":"2023-02-12","TLE_LINE2":"2 55594  43.0055 354.0633 0001650 270.0271  90.0382 15.02537269 19712","MEAN_MOTION_DDOT":"0.0000000000000","MEAN_MOTION_DOT":"0.00001829","BSTAR":"0.00015047000000","EPHEMERIS_TYPE":"0","MEAN_ELEMENT_THEORY":"SGP4","INCLINATION":"43.0055","REV_AT_EPOCH":"1971","ELEMENT_SET_NO":"999","CLASSIFICATION_TYPE":"U","MEAN_ANOMALY":"90.0382","EPOCH":"2023-06-21T18:33:01.992672"}];
